#cP2015  4  7  0  0  0.00000000      96 ORBIT IGb08 HLM  IGS
## 1839 172800.00000000   900.00000000 57119 0.0000000000000
+   32   G01G02G03G04G05G06G07G08G09G10G11G12G13G14G15G16G17
+        G18G19G20G21G22G23G24G25G26G27G28G29G30G31G32  0  0
+          0  0  0  0  0  0  0  0  0  0  0  0  0  0  0  0  0
+          0  0  0  0  0  0  0  0  0  0  0  0  0  0  0  0  0
+          0  0  0  0  0  0  0  0  0  0  0  0  0  0  0  0  0
++         2  2  2  2  2  2  2  2  2  3  2  2  2  2  2  2  2
++         2  2  2  2  2  2  2  2  0  2  2  2  2  2  3  0  0
++         0  0  0  0  0  0  0  0  0  0  0  0  0  0  0  0  0
++         0  0  0  0  0  0  0  0  0  0  0  0  0  0  0  0  0
++         0  0  0  0  0  0  0  0  0  0  0  0  0  0  0  0  0
%c G  cc GPS ccc cccc cccc cccc cccc ccccc ccccc ccccc ccccc
%c cc cc ccc ccc cccc cccc cccc cccc ccccc ccccc ccccc ccccc
%f  1.2500000  1.025000000  0.00000000000  0.000000000000000
%f  0.0000000  0.000000000  0.00000000000  0.000000000000000
%i    0    0    0    0      0      0      0      0         0
%i    0    0    0    0      0      0      0      0         0
/* FINAL ORBIT COMBINATION FROM WEIGHTED AVERAGE OF:        
/* cod emr esa gfz grg jpl mit ngs sio                      
/* REFERENCED TO IGS TIME (IGST) AND TO WEIGHTED MEAN POLE: 
/* PCV:IGS08_1840 OL/AL:FES2004  NONE     Y  ORB:CMB CLK:CMB
*  2015  4  7 10 30  0.00000000
PG01  -9614.451982  20557.852339 -13696.112216     -7.086984  7  4  7 116       
PG02  21535.596490 -13849.855178  -5722.307373    558.266884  8  6  4  99       
PG03   -466.152377  15727.969965 -21382.468707    287.169455  6  3  5  85       
PG04 -16566.562698  19908.179465  -5529.216548    -10.764448  7  3  4  96       
PG05  19582.220447  -6078.290869  16929.724478   -256.947394  7  5  6  80       
PG06  19824.177546   -743.380643 -17656.024056    129.378030  7  5  3 108       
PG07   3677.734324  15661.413778  21164.245881    453.517427  6  6  1 108       
PG08 -23304.471825   9097.645716  -7703.302476     19.236494  7  8  5 125       
PG09   7408.337884  25223.215706   3720.818735   -131.676575  4  4  5  95       
PG10  25069.120864   9456.001761   -372.572759   -170.029272 11  9  4  90       
PG11  -9381.222690  24352.696673  -5062.030903   -569.698677  8  6  4  86       
PG12   3904.903028 -14166.801105 -22225.788691    282.824972  8  4  4  99       
PG13  12727.361814 -11863.551092  19954.968740   -103.521102  5  4  3 101       
PG14 -14187.710484 -12371.575581 -18561.004228     72.689048  9  5  5 100       
PG15   5281.848938 -21937.261307  13665.595303   -242.180831  4  4  1 100       
PG16 -19887.688569   3812.390005  17321.440340   -140.976108  7  4  5 109       
PG17  14016.414287  13971.805282 -17522.132906   -165.107323 10  7  4  97       
PG18 -18281.166193 -15671.303698  12031.621865    392.087482  8  5  7  96       
PG19  -9201.352246  18905.749599  15758.997070   -506.570694  7  4  6 114       
PG20  25604.717451   1691.448128   6946.211517    307.763100  8  3  5  97       
PG21  -8397.613293 -13957.346827  21647.304240   -434.184549  6  4  2 104       
PG22 -24915.365875  -9415.794312   1300.055547    337.013020  8  7  4  92       
PG23     30.098648  25550.047769  -6231.419326   -100.299212  5  4  5  87       
PG24  11893.546378 -20922.479265 -11107.536451    -46.256410  7  5  3 105       
PG25 -10229.278328 -16622.747689 -18182.023882    -17.581228  7  7  8 101       
PG26 -23802.538796 -11386.596491  -4013.740449 999999.999999
PG27 -13199.613214   8988.332227  21194.547846     63.273629  5  7  2  91       
PG28  22194.385794  13768.963991   5689.752309    431.291290  6  4  5 117       
PG29  -3972.664202 -26278.252531    839.003433    602.835932  7  6  4 115       
PG30  13578.539093   8573.647598  21153.448774    -73.726570  5  6  3 107       
PG31 -21340.284951   3575.299906 -15500.837655    319.210013  9  6  8  92       
PG32 -15414.310962   8581.960378 -19704.030927   -182.113204  7  5  8 131       
*  2015  4  7 10 45  0.00000000
PG01 -10825.256106  21353.307265 -11352.223663     -7.086649  7  3  6 122       
PG02  21147.956823 -13007.813292  -8402.052651    558.268860  9  6  5 102       
PG03  -2828.026194  15008.271615 -21718.698424    287.182465  5  3  5  78       
PG04 -17114.803879  19972.625531  -2754.684907    -10.765173  7  3  4  76       
PG05  21277.723055  -5352.166707  15044.738337   -256.942809  8  4  6  48       
PG06  18359.232720    777.621293 -19174.207061    129.387108  7  4  2  96       
PG07   1840.203855  17133.125657  20206.362802    453.519981  6  6  1  99       
PG08 -22530.334647   8325.509505 -10400.853282     19.238109  7  8  4 116       
PG09   7208.344633  25539.060028    886.100039   -131.684358  5  5  5  76       
PG10  24832.527533   9666.447836  -3156.332328   -170.029802 12  8  4  75       
PG11  -9952.272765  24475.453812  -2386.072538   -569.700645  8  6  3 105       
PG12   6260.170924 -13285.164293 -22212.158014    282.827972  8  3  4  92       
PG13  13046.623154  -9519.056427  20961.008379   -103.524126  6  4  4  87       
PG14 -14339.186515 -14436.457762 -16913.925369     72.686282  9  5  5  89       
PG15   5976.331592 -20350.168049  15701.086564   -242.182942  4  4     73       
PG16 -21587.248027   3043.859812  15368.080062   -140.972940  7  3  5 101       
PG17  14206.292957  15907.564051 -15669.404849   -165.109284 11  7  5  96       
PG18 -16840.663938 -15500.140687  14217.672024    392.090118  8  5  7  87       
PG19  -9614.521810  16986.016828  17612.002534   -506.572070  7  4  6 113       
PG20  26169.954400   2170.092016   4265.363049    307.766811  8  3  5  86       
PG21  -6659.578818 -15495.031104  21151.031304   -434.187530  5  3  2  91       
PG22 -24546.742811  -9663.023119   4047.282472    337.016827  7  6  5  95       
PG23   -454.610959  24738.563634  -8904.511071   -100.301623  4  4  4  98       
PG24  12889.991860 -21507.029372  -8570.334624    -46.256110  7  5  2 117       
PG25  -8162.835573 -16063.907912 -19661.601928    -17.584276  7  7  8 102       
PG26 -23149.593055 -11427.063635  -6773.690684 999999.999999
PG27 -13777.043335   6600.043697  21708.433084     63.276066  4  7  2  67       
PG28  21460.432957  13637.967745   8445.991425    431.293494  6  4  5 111       
PG29  -3746.041338 -26242.757594  -2035.993246    602.837907  6  5  4 126       
PG30  11672.849896  10112.949922  21601.074947    -73.723309  5  6  3  97       
PG31 -19983.848965   2254.364267 -17393.684496    319.208972  9  6  8  98       
PG32 -17383.883206   7595.365596 -18377.626176   -182.104707  7  5  8 111       
*  2015  4  7 11  0  0.00000000
PG01 -11799.048642  22013.568690  -8811.540821     -7.086286  6  1  6 112       
PG02  20598.536360 -11926.959384 -10931.335060    558.270840  9  5  5  89       
PG03  -5240.046330  14408.067236 -21680.829993    287.195351  6  3  5 107       
PG04 -17442.907455  19831.964748     67.840327    -10.766117  7  3  4  79       
PG05  22786.049171  -4767.849346  12902.084633   -256.938550  9  4  6  64       
PG06  16868.914347   2482.799629 -20362.355377    129.396195  7  4  2 100       
PG07    172.926904  18613.570469  18900.635565    453.522672  7  6  1 100       
PG08 -21564.026847   7324.915395 -12911.394804     19.237527  8  7  4 121       
PG09   6936.844651  25555.228786  -1963.884318   -131.692122  5  5  5  90       
PG10  24310.812071   9806.796052  -5887.436201   -170.030768 11  8  4  83       
PG11 -10394.372840  24346.835952    331.052223   -569.703216  7  6  3  89       
PG12   8641.925054 -12544.901247 -21819.255167    282.830985  7  3  4  88       
PG13  13507.727409  -7100.975270  21602.315937   -103.527016  7  4  4  92       
PG14 -14559.827358 -16287.436650 -14972.440994     72.683667  9  5  5  75       
PG15   6811.298802 -18593.640078  17461.099501   -242.184612  4  4     73       
PG16 -23102.110455   2447.884635  13153.563767   -140.969650  7  2  5 102       
PG17  14448.735923  17606.326681 -13544.087550   -165.111071 11  7  5  87       
PG18 -15173.128299 -15344.104345  16169.346913    392.092482  8  5  7  92       
PG19 -10161.480784  14900.683826  19152.519984   -506.572930  6  4  6 109       
PG20  26456.424017   2564.898584   1511.444923    307.770587  8  3  5  99       
PG21  -5046.005385 -17066.947596  20310.258103   -434.190864  4  2  2  86       
PG22 -23895.634708  -9854.730646   6725.865365    337.020637  7  6  5  89       
PG23  -1057.047146  23665.727278 -11419.698393   -100.303859  3  4  4  79       
PG24  13652.217215 -21926.478448  -5884.600866    -46.256809  7  5  2 117       
PG25  -5924.316382 -15583.738264 -20806.980619    -17.587383  7  6  8 104       
PG26 -22205.808322 -11427.582540  -9418.751337 999999.999999
PG27 -14489.966699   4211.046403  21848.141192     63.278516  5  7  2  72       
PG28  20437.692001  13452.180820  11060.668244    431.295715  7  4  4  98       
PG29  -3446.572920 -25903.857778  -4876.050266    602.840041  5  4  4 121       
PG30   9826.103461  11768.044666  21676.776538    -73.720020  5  6  4  97       
PG31 -18557.761436    721.556104 -18988.167163    319.208026  9  6  8  69       
PG32 -19243.411168   6760.067333 -16729.679319   -182.095912  7  5  9 129       
EOF
